H1 CPF  1  DLR 2022 12 29 13  8632 technosat            
H2  1704205 6203    42829 2022 12 29 00 00 00 2023 01 05 00 00 00    60 1 1  0 0 0
H9
10 0 59946  28800.000000  0       2720022.658      -1408220.655       6240247.658
10 0 59946  28860.000000  0       2300796.694      -1353904.624       6418027.625
10 0 59946  28920.000000  0       1872348.347      -1290148.480       6568442.813
10 0 59946  28980.000000  0       1436574.515      -1217150.674       6690856.934
10 0 59946  29040.000000  0        995400.382      -1135165.376       6784753.203
10 0 59946  29100.000000  0        550770.788      -1044501.565       6849736.330
10 0 59946  29160.000000  0        104641.549       -945521.831       6885534.054
10 0 59946  29220.000000  0       -341029.226       -838640.888       6891998.123
10 0 59946  29280.000000  0       -784289.738       -724323.825       6869104.840
10 0 59946  29340.000000  0      -1223203.130       -603084.042       6816955.120
10 0 59946  29400.000000  0      -1655855.987       -475480.902       6735773.969
10 0 59946  29460.000000  0      -2080366.683       -342117.144       6625909.532
10 0 59946  29520.000000  0      -2494893.625       -203636.038       6487831.665
10 0 59946  29580.000000  0      -2897643.324        -60718.275       6322129.995
10 0 59946  29640.000000  0      -3286878.253         85921.345       6129511.482
10 0 59946  29700.000000  0      -3660924.492        235537.430       5910797.520
10 0 59946  29760.000000  0      -4018179.119        387357.750       5666920.486
10 0 59946  29820.000000  0      -4357117.211        540587.142       5398919.807
10 0 59946  29880.000000  0      -4676298.552        694411.583       5107937.645
10 0 59946  29940.000000  0      -4974373.996        848002.428       4795214.083
10 0 59946  30000.000000  0      -5250091.395       1000520.790       4462081.817
10 0 59946  30060.000000  0      -5502301.022       1151121.977       4109960.455
10 0 59946  30120.000000  0      -5729960.555       1298960.025       3740350.465
10 0 59946  30180.000000  0      -5932139.580       1443192.303       3354826.757
10 0 59946  30240.000000  0      -6108023.593       1582984.130       2955031.886
10 0 59946  30300.000000  0      -6256917.432       1717513.376       2542668.947
10 0 59946  30360.000000  0      -6378248.174       1845975.043       2119494.196
10 0 59946  30420.000000  0      -6471567.468       1967585.813       1687309.412
10 0 59946  30480.000000  0      -6536553.256       2081588.533       1247953.983
10 0 59946  30540.000000  0      -6573010.822       2187256.561        803296.811
10 0 59946  30600.000000  0      -6580873.214       2283897.964        355228.138
10 0 59946  30660.000000  0      -6560201.088       2370859.533        -94348.716
10 0 59946  30720.000000  0      -6511181.921       2447530.639       -543525.687
10 0 59946  30780.000000  0      -6434128.571       2513346.850       -990398.255
10 0 59946  30840.000000  0      -6329477.315       2567793.350      -1433073.675
10 0 59946  30900.000000  0      -6197785.306       2610408.121      -1869679.171
10 0 59946  30960.000000  0      -6039727.408       2640784.845      -2298370.046
10 0 59946  31020.000000  0      -5856092.438       2658575.508      -2717337.561
10 0 59946  31080.000000  0      -5647778.937       2663492.675      -3124816.575
10 0 59946  31140.000000  0      -5415790.466       2655311.461      -3519092.935
10 0 59946  31200.000000  0      -5161230.466       2633871.185      -3898510.582
10 0 59946  31260.000000  0      -4885296.721       2599076.719      -4261478.349
10 0 59946  31320.000000  0      -4589275.415       2550899.494      -4606476.414
10 0 59946  31380.000000  0      -4274534.870       2489378.173      -4932062.381
10 0 59946  31440.000000  0      -3942518.999       2414619.011      -5236876.949
10 0 59946  31500.000000  0      -3594740.545       2326795.907      -5519649.215
10 0 59946  31560.000000  0      -3232774.120       2226150.125      -5779201.594
10 0 59946  31620.000000  0      -2858249.047       2112989.694      -6014454.394
10 0 59946  31680.000000  0      -2472841.976       1987688.494      -6224429.980
10 0 59946  31740.000000  0      -2078269.329       1850685.001      -6408256.437
10 0 59946  31800.000000  0      -1676279.737       1702480.733      -6565170.717
10 0 59946  31860.000000  0      -1268646.519       1543638.449      -6694521.455
10 0 59946  31920.000000  0       -857160.038       1374780.018      -6795771.432
10 0 59946  31980.000000  0       -443620.029       1196584.019      -6868499.488
10 0 59946  32040.000000  0        -29828.071       1009783.120      -6912402.028
10 0 59946  32100.000000  0        382419.921        815161.196      -6927294.272
10 0 59946  32160.000000  0        791341.289        613550.152      -6913111.110
10 0 59946  32220.000000  0       1195174.191        405826.470      -6869907.382
10 0 59946  32280.000000  0       1592184.956        192907.528      -6797857.661
10 0 59946  32340.000000  0       1980675.261        -24252.291      -6697255.654
10 0 59946  32400.000000  0       2358989.167       -244665.678      -6568513.263
10 0 59946  32460.000000  0       2725520.113       -467316.720      -6412159.225
10 0 59946  32520.000000  0       3078717.673       -691165.428      -6228837.156
10 0 59946  32580.000000  0       3417093.987       -915152.390      -6019303.211
10 0 59946  32640.000000  0       3739229.989      -1138203.567      -5784423.426
10 0 59946  32700.000000  0       4043781.494      -1359235.310      -5525170.640
10 0 59946  32760.000000  0       4329484.985      -1577159.541      -5242620.877
10 0 59946  32820.000000  0       4595163.040      -1790889.010      -4937949.271
10 0 59946  32880.000000  0       4839729.424      -1999342.619      -4612425.582
10 0 59946  32940.000000  0       5062193.807      -2201450.819      -4267409.293
10 0 59946  33000.000000  0       5261666.109      -2396161.028      -3904344.289
10 0 59946  33060.000000  0       5437360.447      -2582443.062      -3524753.116
10 0 59946  33120.000000  0       5588598.622      -2759294.540      -3130230.826
10 0 59946  33180.000000  0       5714813.128      -2925746.235      -2722438.433
10 0 59946  33240.000000  0       5815549.640      -3080867.336      -2303096.004
10 0 59946  33300.000000  0       5890468.955      -3223770.564      -1873975.468
10 0 59946  33360.000000  0       5939348.474      -3353617.155      -1436893.159
10 0 59946  33420.000000  0       5962083.118      -3469621.696       -993702.036
10 0 59946  33480.000000  0       5958685.631      -3571056.710       -546283.654
10 0 59946  33540.000000  0       5929286.312      -3657256.974        -96540.016
10 0 59946  33600.000000  0       5874132.207      -3727623.580        353614.734
10 0 59946  33660.000000  0       5793585.727      -3781627.750        802262.729
10 0 59946  33720.000000  0       5688122.688      -3818814.291       1247490.917
10 0 59946  33780.000000  0       5558329.700      -3838804.610       1687399.641
10 0 59946  33840.000000  0       5404900.960      -3841299.309       2120111.039
10 0 59946  33900.000000  0       5228634.602      -3826080.461       2543777.302
10 0 59946  33960.000000  0       5030428.563      -3793013.503       2956588.891
10 0 59946  34020.000000  0       4811275.914      -3742048.615       3356782.554
10 0 59946  34080.000000  0       4572259.799      -3673221.681       3742649.054
10 0 59946  34140.000000  0       4314547.997      -3586654.894       4112540.681
10 0 59946  34200.000000  0       4039387.025      -3482556.927       4464878.548
10 0 59946  34260.000000  0       3748095.790      -3361222.587       4798159.491
10 0 59946  34320.000000  0       3442059.005      -3223032.013       5110962.494
10 0 59946  34380.000000  0       3122720.425      -3068449.470       5401954.763
10 0 59946  34440.000000  0       2791575.819      -2898021.716       5669897.435
10 0 59946  34500.000000  0       2450165.716      -2712375.973       5913650.799
10 0 59946  34560.000000  0       2100068.007      -2512217.509       6132179.049
10 0 59946  34620.000000  0       1742890.471      -2298326.831       6324554.549
10 0 59946  34680.000000  0       1380263.235      -2071556.540       6489961.658
10 0 59946  34740.000000  0       1013831.167      -1832827.774       6627700.060
10 0 59946  34800.000000  0        645246.288      -1583126.343       6737187.547
10 0 59946  34860.000000  0        276160.253      -1323498.561       6817962.348
10 0 59946  34920.000000  0        -91783.140      -1055046.729       6869684.948
10 0 59946  34980.000000  0       -456955.314       -778924.367       6892139.343
10 0 59946  35040.000000  0       -817750.134       -496331.222       6885233.877
10 0 59946  35100.000000  0      -1172591.038       -208507.978       6849001.574
10 0 59946  35160.000000  0      -1519937.964         83269.252       6783599.911
10 0 59946  35220.000000  0      -1858294.045        377694.632       6689310.128
10 0 59946  35280.000000  0      -2186212.112        673438.481       6566536.042
10 0 59946  35340.000000  0      -2502300.949        969153.315       6415802.327
10 0 59946  35400.000000  0      -2805231.238       1263480.012       6237752.335
10 0 59946  35460.000000  0      -3093741.221       1555054.086       6033145.446
10 0 59946  35520.000000  0      -3366642.075       1842512.055       5802853.938
10 0 59946  35580.000000  0      -3622822.955       2124497.877       5547859.379
10 0 59946  35640.000000  0      -3861255.645       2399669.450       5269248.501
10 0 59946  35700.000000  0      -4080998.807       2666705.078       4968208.616
10 0 59946  35760.000000  0      -4281201.842       2924309.886       4646022.602
10 0 59946  35820.000000  0      -4461108.346       3171222.158       4304063.439
10 0 59946  35880.000000  0      -4620059.053       3406219.565       3943788.333
10 0 59946  35940.000000  0      -4757494.344       3628125.297       3566732.500
99
